STARLINK-1559           
1 46077U 20055BC  26068.23360559  .00042685  00000+0  14779-2 0  9995
2 46077  53.0254  76.0659 0004229  33.9710 326.1559 15.29461733309518
STARLINK-32079          
1 60336U 24136H   26068.43158369  .00000628  00000+0  33340-4 0  9997
2 60336  53.1607  76.9622 0001168  76.0991 284.0140 15.30194556 89625
